GLOBALSTAR M094 [+]     
1 39074U 13005C   24002.37676106 -.00000102  00000+0  78405-5 0  9998
2 39074  51.9979   1.3226 0000273 130.0821 230.0070 12.62270699505215
GLOBALSTAR M096 [+]     
1 39075U 13005D   24002.31095976 -.00000098  00000+0  30123-4 0  9991
2 39075  52.0088  49.6232 0000701 145.1148 214.9765 12.62267387504127
GLOBALSTAR M078 [+]     
1 39076U 13005E   24002.52202902 -.00000093  00000+0  61936-4 0  9995
2 39076  51.9862 134.2112 0001798  92.9382 267.1690 12.62258500502773
GLOBALSTAR M095 [+]     
1 39077U 13005F   24002.54823055 -.00000092  00000+0  64535-4 0  9993
2 39077  51.9788 131.5909 0001634 114.2266 245.8771 12.62272236502633
GLOBALSTAR M087 [+]     
1 52888U 22064A   24002.55082020 -.00000088  00000+0  76171-4 0  9997
2 52888  51.9766  69.4286 0008886 302.2064  57.7974 13.37561571 75223
